UEI,Name,Street Address,City,State,Zip Code,Website,SBIR Profile Link,duns,number_employees
FE9HTJ2TLGY5,NEUROENE THERAPEUTICS INC,7144 13TH PL NW,WASHINGTON,DC,20012-2358,http://www.neuroenetherapeutics.com/,https://www.sbir.gov/portfolio/816727,79882306.0,5
D6P3UNRMJU97,SANITARY GREEN INCORPORATED,2447 NE 4TH ST,BEND,OR,97701-3638,http://www.sanitarygreen.com,https://www.sbir.gov/portfolio/1641013,117135816.0,6
X854ZJDHWHJ5,VISIMO LLC,520 E MAIN STREET,CARNEGIE,PA,15106-2051,http://www.visimo.ai,https://www.sbir.gov/portfolio/1647075,16990771.0,24
X854ZJDHWHJ5,VISIMO LLC,520 E MAIN STREET,CARNEGIE,PA,15106-2051,http://www.visimo.ai,https://www.sbir.gov/portfolio/1647075,16990771.0,24
X854ZJDHWHJ5,VISIMO LLC,520 E MAIN STREET,CARNEGIE,PA,15106-2051,http://www.visimo.ai,https://www.sbir.gov/portfolio/1647075,16990771.0,24
Y3M9AQF9LKJ4,ACADIAN RESEARCH & DEVELOPMENT LLC,1482 COMMERCE DR,LARAMIE,WY,82070-7041,https://www.acadianrd.com,https://www.sbir.gov/portfolio/1648531,117322893.0,3
Y3M9AQF9LKJ4,ACADIAN RESEARCH & DEVELOPMENT LLC,1482 COMMERCE DR,LARAMIE,WY,82070-7041,https://www.acadianrd.com,https://www.sbir.gov/portfolio/1648531,117322893.0,3
ESP6ZKMSMQK8,Creekside Environmental Products LLC,1 SOUTHERN CSWY,STARKVILLE,MS,39759-8789,,https://www.sbir.gov/portfolio/1205715,80290127.0,3
ESP6ZKMSMQK8,Creekside Environmental Products LLC,1 SOUTHERN CSWY,STARKVILLE,MS,39759-8789,,https://www.sbir.gov/portfolio/1205715,80290127.0,3
ESP6ZKMSMQK8,Creekside Environmental Products LLC,1 SOUTHERN CSWY,STARKVILLE,MS,39759-8789,,https://www.sbir.gov/portfolio/1205715,80290127.0,3
ESP6ZKMSMQK8,Creekside Environmental Products LLC,1 SOUTHERN CSWY,STARKVILLE,MS,39759-8789,,https://www.sbir.gov/portfolio/1205715,80290127.0,3
E8DMQP3A2W74,"FOREVER ANALYTICAL SERVICES, INC.",1400 E. ANGELA BLVD.,SOUTH BEND,IN,46617-1364,,https://www.sbir.gov/portfolio/2243797,,2
PLRXAUJRGGT8,HOLOCHIP CORP,4030 SPENCER ST STE 102,TORRANCE,CA,90503-2457,https://www.holochip.com,https://www.sbir.gov/portfolio/182360,118922413.0,15
PLRXAUJRGGT8,HOLOCHIP CORP,4030 SPENCER ST STE 102,TORRANCE,CA,90503-2457,https://www.holochip.com,https://www.sbir.gov/portfolio/182360,118922413.0,15
PLRXAUJRGGT8,HOLOCHIP CORP,4030 SPENCER ST STE 102,TORRANCE,CA,90503-2457,https://www.holochip.com,https://www.sbir.gov/portfolio/182360,118922413.0,15
U3VRD1T9Q6H9,Material Reuse LLC,1406 NE 7TH ST,GAINESVILLE,FL,32601-3747,,https://www.sbir.gov/portfolio/2419279,,1
U3VRD1T9Q6H9,Material Reuse LLC,1406 NE 7TH ST,GAINESVILLE,FL,32601-3747,,https://www.sbir.gov/portfolio/2419279,,1
QTYLAVN4EJR6,MIZAR THERAPEUTICS INC.,7 MBL ST LILLIE 220,WOODS HOLE,MA,02543,,https://www.sbir.gov/portfolio/2443577,,4
LL34B99KR2R4,Molecular Rebar Design,13477 FITZHUGH,Austin,TX,78736,https://www.Molecularrebar.com,https://www.sbir.gov/portfolio/1690915,78712611.0,16
LL34B99KR2R4,Molecular Rebar Design,13477 FITZHUGH,Austin,TX,78736,https://www.Molecularrebar.com,https://www.sbir.gov/portfolio/1690915,78712611.0,16
X854ZJDHWHJ5,VISIMO LLC,520 E MAIN STREET,CARNEGIE,PA,15106-2051,http://www.visimo.ai,https://www.sbir.gov/portfolio/1647075,16990771.0,24
X854ZJDHWHJ5,VISIMO LLC,520 E MAIN STREET,CARNEGIE,PA,15106-2051,http://www.visimo.ai,https://www.sbir.gov/portfolio/1647075,16990771.0,24
X854ZJDHWHJ5,VISIMO LLC,520 E MAIN STREET,CARNEGIE,PA,15106-2051,http://www.visimo.ai,https://www.sbir.gov/portfolio/1647075,16990771.0,24
VF8ZC4A4ZWL9,SAFETYSPECT INC,4200 JAMES RAY DR,GRAND FORKS,ND,58202-6090,https://www.safetyspect.com/,https://www.sbir.gov/portfolio/1499203,80562947.0,17
VF8ZC4A4ZWL9,SAFETYSPECT INC,4200 JAMES RAY DR,GRAND FORKS,ND,58202-6090,https://www.safetyspect.com/,https://www.sbir.gov/portfolio/1499203,80562947.0,17
VF8ZC4A4ZWL9,SAFETYSPECT INC,4200 JAMES RAY DR,GRAND FORKS,ND,58202-6090,https://www.safetyspect.com/,https://www.sbir.gov/portfolio/1499203,80562947.0,17
VF8ZC4A4ZWL9,SAFETYSPECT INC,4200 JAMES RAY DR,GRAND FORKS,ND,58202-6090,https://www.safetyspect.com/,https://www.sbir.gov/portfolio/1499203,80562947.0,17
VF8ZC4A4ZWL9,SAFETYSPECT INC,4200 JAMES RAY DR,GRAND FORKS,ND,58202-6090,https://www.safetyspect.com/,https://www.sbir.gov/portfolio/1499203,80562947.0,17
LM98CNVAUTG5,"IM Technologies, LLC",24 Robinson St,Shoreham,NY,11786-2128,www.imtechllc.com,https://www.sbir.gov/portfolio/1665117,117200978.0,3
LM98CNVAUTG5,"IM Technologies, LLC",24 Robinson St,Shoreham,NY,11786-2128,www.imtechllc.com,https://www.sbir.gov/portfolio/1665117,117200978.0,3
ZWK6WMUV43G5,TELOHEALTHDX LLC,23003 FREDERICK RD,CLARKSBURG,MD,20871-9428,,https://www.sbir.gov/portfolio/2263357,118793982.0,2
JBJ7EF1MD9P1,Sorbenta Inc,107 E POPLAR AVE,CARRBORO,NC,27510-1709,,https://www.sbir.gov/portfolio/2420787,,2
JBJ7EF1MD9P1,Sorbenta Inc,107 E POPLAR AVE,CARRBORO,NC,27510-1709,,https://www.sbir.gov/portfolio/2420787,,2
JBJ7EF1MD9P1,Sorbenta Inc,107 E POPLAR AVE,CARRBORO,NC,27510-1709,,https://www.sbir.gov/portfolio/2420787,,2
LDHKC12HSJ86,"Predictive, LLC",2806 Treasures Ln,Raleigh,NC,27614-7631,https://www.predictive-llc.com/,https://www.sbir.gov/portfolio/1617725,117131092.0,4
LDHKC12HSJ86,"Predictive, LLC",2806 Treasures Ln,Raleigh,NC,27614-7631,https://www.predictive-llc.com/,https://www.sbir.gov/portfolio/1617725,117131092.0,4
NMDVSFDSVCB4,AXNANO LLC,2901 E GATE CITY BLVD,GREENSBORO,NC,27401-4901,www.axnano.com,https://www.sbir.gov/portfolio/664448,969638274.0,7
QTYLAVN4EJR6,MIZAR THERAPEUTICS INC.,7 MBL ST LILLIE 220,WOODS HOLE,MA,02543,,https://www.sbir.gov/portfolio/2443577,,4
DAF9XL6P2BG5,ACCUNOVO BIOTECHNOLOGIES INC,211 LAKE MANOR RD,CHAPEL HILL,NC,27516-4322,,https://www.sbir.gov/portfolio/1648085,53776397.0,1
DAF9XL6P2BG5,ACCUNOVO BIOTECHNOLOGIES INC,211 LAKE MANOR RD,CHAPEL HILL,NC,27516-4322,,https://www.sbir.gov/portfolio/1648085,53776397.0,1
QUJ8BQ1CFAS2,"CurieDx, Inc",634 REGESTER AVE,BALTIMORE,MD,21212-1917,https://www.curiedx.com,https://www.sbir.gov/portfolio/2078501,102429643.0,1
QUJ8BQ1CFAS2,"CurieDx, Inc",634 REGESTER AVE,BALTIMORE,MD,21212-1917,https://www.curiedx.com,https://www.sbir.gov/portfolio/2078501,102429643.0,1
L28FVGJ715D7,"Prompt Diagnostics, Inc.",2401 W Belvedere Ave,Baltimore,MD,,https://www.prompt-dx.com/,https://www.sbir.gov/portfolio/2057589,105269595.0,8
GGR9ABCTBGG5,"LIFEGENE- BIOMARKS, INC",1612 AVENIDA PONCE DE LEON,SAN JUAN,PR,00909-1833,http://lifegenedna.com,https://www.sbir.gov/portfolio/1203221,968756119.0,1
GGR9ABCTBGG5,"LIFEGENE- BIOMARKS, INC",1612 AVENIDA PONCE DE LEON,SAN JUAN,PR,00909-1833,http://lifegenedna.com,https://www.sbir.gov/portfolio/1203221,968756119.0,1
GGR9ABCTBGG5,"LIFEGENE- BIOMARKS, INC",1612 AVENIDA PONCE DE LEON,SAN JUAN,PR,00909-1833,http://lifegenedna.com,https://www.sbir.gov/portfolio/1203221,968756119.0,1
QH88DLKTLQM6,"Nanocrine, Inc.",3011 Palatine Dr.,Frederick,MD,21701,https://www.nanocrine.com,https://www.sbir.gov/portfolio/1692755,117497549.0,1
UFHYM6EJN7L3,"MELATECH, L.L.C.",615 N WOLFE ST,BALTIMORE,MD,21205-2103,,https://www.sbir.gov/portfolio/1499101,81262454.0,4
UFHYM6EJN7L3,"MELATECH, L.L.C.",615 N WOLFE ST,BALTIMORE,MD,21205-2103,,https://www.sbir.gov/portfolio/1499101,81262454.0,4
NMDVSFDSVCB4,AXNANO LLC,2901 E GATE CITY BLVD,GREENSBORO,NC,27401-4901,www.axnano.com,https://www.sbir.gov/portfolio/664448,969638274.0,7
